KUIPER-00133            
1 65764U 25217C   25341.32476057  .00007239  00000+0  97872-3 0  9990
2 65764  51.9025 101.5217 0011279  14.9318 345.1975 14.79855471 11068
KUIPER-00139            
1 65765U 25217D   25341.02226458  .00011124  00000+0  86768-3 0  9996
2 65765  51.8863  98.0952 0007700   0.2363 359.8611 15.01576124 11088
KUIPER-00142            
1 65766U 25217E   25341.33336806  .00042690  00000+0  14688-2 0  9993
2 65766  51.8720  90.6741 0002962  18.3676 263.8661 15.29643034  3981
KUIPER-00145            
1 65767U 25217F   25341.33336806 -.01196430  00000+0 -56228-1 0  9994
2 65767  51.8810  91.5978 0006798 328.4982 184.2073 15.21955597  5257
KUIPER-00147            
1 65768U 25217G   25341.33336806 -.01051033  00000+0 -63927-1 0  9998
2 65768  51.8794  92.9984 0010271 359.8346 157.1785 15.12621515  5129
KUIPER-00148            
1 65769U 25217H   25341.28454041 -.00030184  00000+0 -14044-2 0  9995
2 65769  51.8710  93.1215 0007854  24.3146 335.8202 15.19210856 11173
KUIPER-00150            
1 65770U 25217J   25341.33336806  .00010389  00000+0  12838-2 0  9993
2 65770  51.8991  99.0014 0008476  11.8048  12.9197 14.83248516  5624
KUIPER-00151            
1 65771U 25217K   25341.33336806 -.00945084  00000+0 -63566-1 0  9998
2 65771  51.8824  93.6168 0002771 345.5783 318.9853 15.09246957  5911
